start=new Date('2021-10-12T00:00:00.000Z').valueOf();
sats=[{"OBJECT_NAME":"STARLINK-2015","REV_AT_EPOCH":"3810","SEMIMAJOR_AXIS":"6860.806","REF_FRAME":"TEME","OBJECT_TYPE":"PAYLOAD","FILE":"3157165","MEAN_MOTION_DDOT":"0.0000000000000","TLE_LINE2":"2 47638  53.0429   5.3693 0001636  54.5693 305.5458 15.27707106 38105","PERIOD":"94.259","ELEMENT_SET_NO":"999","TIME_SYSTEM":"UTC","APOAPSIS":"483.793","EPHEMERIS_TYPE":"0","BSTAR":"-0.01116100000000","OBJECT_ID":"2021-012U","CLASSIFICATION_TYPE":"U","ECCENTRICITY":"0.00016360","EPOCH":"2021-10-11T13:49:02.744544","RA_OF_ASC_NODE":"5.3693","MEAN_MOTION":"15.27707106","SITE":"AFETR","LAUNCH_DATE":"2021-02-16","DECAY_DATE":null,"PERIAPSIS":"481.548","COUNTRY_CODE":"US","NORAD_CAT_ID":"47638","MEAN_MOTION_DOT":"-0.00294733","TLE_LINE1":"1 47638U 21012U   21284.57572621 -.00294733  00000-0 -11161-1 0  9997","GP_ID":"186898760","MEAN_ELEMENT_THEORY":"SGP4","INCLINATION":"53.0429","CENTER_NAME":"EARTH","ARG_OF_PERICENTER":"54.5693","RCS_SIZE":"LARGE","MEAN_ANOMALY":"305.5458"},{"MEAN_ANOMALY":"270.7361","RCS_SIZE":"LARGE","ARG_OF_PERICENTER":"89.3822","INCLINATION":"53.0544","CENTER_NAME":"EARTH","MEAN_ELEMENT_THEORY":"SGP4","GP_ID":"186928826","MEAN_MOTION_DOT":"-0.00000350","TLE_LINE1":"1 47639U 21012V   21284.69726234 -.00000350  00000-0 -45832-5 0  9998","COUNTRY_CODE":"US","NORAD_CAT_ID":"47639","DECAY_DATE":null,"PERIAPSIS":"546.032","SITE":"AFETR","MEAN_MOTION":"15.06402662","LAUNCH_DATE":"2021-02-16","EPOCH":"2021-10-11T16:44:03.466176","ECCENTRICITY":"0.00016950","RA_OF_ASC_NODE":"79.1375","OBJECT_ID":"2021-012V","CLASSIFICATION_TYPE":"U","EPHEMERIS_TYPE":"0","BSTAR":"-0.00000458320000","APOAPSIS":"548.379","TIME_SYSTEM":"UTC","TLE_LINE2":"2 47639  53.0544  79.1375 0001695  89.3822 270.7361 15.06402662 37588","ELEMENT_SET_NO":"999","PERIOD":"95.592","MEAN_MOTION_DDOT":"0.0000000000000","FILE":"3157563","OBJECT_TYPE":"PAYLOAD","REF_FRAME":"TEME","REV_AT_EPOCH":"3758","SEMIMAJOR_AXIS":"6925.340","OBJECT_NAME":"STARLINK-2016"},{"ARG_OF_PERICENTER":"88.7933","INCLINATION":"53.0557","CENTER_NAME":"EARTH","MEAN_ELEMENT_THEORY":"SGP4","GP_ID":"186929576","MEAN_MOTION_DOT":"0.00001090","TLE_LINE1":"1 47640U 21012W   21284.75810478  .00001090  00000-0  92103-4 0  9993","COUNTRY_CODE":"US","NORAD_CAT_ID":"47640","DECAY_DATE":null,"PERIAPSIS":"545.987","MEAN_ANOMALY":"271.3262","RCS_SIZE":"LARGE","OBJECT_TYPE":"PAYLOAD","REF_FRAME":"TEME","REV_AT_EPOCH":"3733","SEMIMAJOR_AXIS":"6925.370","OBJECT_NAME":"STARLINK-2018","SITE":"AFETR","MEAN_MOTION":"15.06392914","LAUNCH_DATE":"2021-02-16","ECCENTRICITY":"0.00018020","EPOCH":"2021-10-11T18:11:40.252992","RA_OF_ASC_NODE":"98.8860","OBJECT_ID":"2021-012W","CLASSIFICATION_TYPE":"U","EPHEMERIS_TYPE":"0","BSTAR":"0.00009210300000","APOAPSIS":"548.483","TIME_SYSTEM":"UTC","TLE_LINE2":"2 47640  53.0557  98.8860 0001802  88.7933 271.3262 15.06392914 37335","ELEMENT_SET_NO":"999","PERIOD":"95.593","FILE":"3157563","MEAN_MOTION_DDOT":"0.0000000000000"},{"REF_FRAME":"TEME","OBJECT_TYPE":"PAYLOAD","REV_AT_EPOCH":"365","SEMIMAJOR_AXIS":"6873.611","OBJECT_NAME":"STARLINK-2019","RA_OF_ASC_NODE":"3.2273","EPOCH":"2021-10-12T00:00:00.999648","ECCENTRICITY":"0.00014890","LAUNCH_DATE":"2021-02-16","SITE":"AFETR","MEAN_MOTION":"15.23440045","BSTAR":"-0.04811700000000","EPHEMERIS_TYPE":"0","CLASSIFICATION_TYPE":"U","OBJECT_ID":"2021-012X","TIME_SYSTEM":"UTC","APOAPSIS":"496.499","MEAN_MOTION_DDOT":"0.0000000000000","FILE":"3157563","PERIOD":"94.523","ELEMENT_SET_NO":"999","TLE_LINE2":"2 47641  53.0436   3.2273 0001489  47.5614 257.1939 15.23440045  3659","INCLINATION":"53.0436","CENTER_NAME":"EARTH","ARG_OF_PERICENTER":"47.5614","MEAN_ELEMENT_THEORY":"SGP4","TLE_LINE1":"1 47641U 21012X   21285.00001157 -.01063614  00000-0 -48117-1 0  9995","MEAN_MOTION_DOT":"-0.01063614","GP_ID":"186929828","PERIAPSIS":"494.452","DECAY_DATE":null,"NORAD_CAT_ID":"47641","COUNTRY_CODE":"US","MEAN_ANOMALY":"257.1939","RCS_SIZE":"LARGE"},{"SEMIMAJOR_AXIS":"6925.365","REV_AT_EPOCH":"3739","OBJECT_NAME":"STARLINK-2020","OBJECT_TYPE":"PAYLOAD","REF_FRAME":"TEME","APOAPSIS":"548.458","TIME_SYSTEM":"UTC","PERIOD":"95.592","ELEMENT_SET_NO":"999","TLE_LINE2":"2 47642  53.0546  93.8623 0001774  94.3296 265.7896 15.06394673 37390","MEAN_MOTION_DDOT":"0.0000000000000","FILE":"3157563","LAUNCH_DATE":"2021-02-16","MEAN_MOTION":"15.06394673","SITE":"AFETR","RA_OF_ASC_NODE":"93.8623","EPOCH":"2021-10-11T18:13:35.620320","ECCENTRICITY":"0.00017740","CLASSIFICATION_TYPE":"U","OBJECT_ID":"2021-012Y","BSTAR":"-0.00001743300000","EPHEMERIS_TYPE":"0","GP_ID":"186930578","TLE_LINE1":"1 47642U 21012Y   21284.75944005 -.00000541  00000-0 -17433-4 0  9994","MEAN_MOTION_DOT":"-0.00000541","NORAD_CAT_ID":"47642","COUNTRY_CODE":"US","PERIAPSIS":"546.001","DECAY_DATE":null,"ARG_OF_PERICENTER":"94.3296","INCLINATION":"53.0546","CENTER_NAME":"EARTH","MEAN_ELEMENT_THEORY":"SGP4","RCS_SIZE":"LARGE","MEAN_ANOMALY":"265.7896"},{"SEMIMAJOR_AXIS":"6925.333","REV_AT_EPOCH":"3760","OBJECT_NAME":"STARLINK-2022","OBJECT_TYPE":"PAYLOAD","REF_FRAME":"TEME","APOAPSIS":"548.572","TIME_SYSTEM":"UTC","TLE_LINE2":"2 47643  53.0538  79.0757 0001984  92.5923 267.5293 15.06405034 37605","ELEMENT_SET_NO":"999","PERIOD":"95.592","FILE":"3157563","MEAN_MOTION_DDOT":"0.0000000000000","SITE":"AFETR","MEAN_MOTION":"15.06405034","LAUNCH_DATE":"2021-02-16","EPOCH":"2021-10-11T17:05:16.623744","ECCENTRICITY":"0.00019840","RA_OF_ASC_NODE":"79.0757","OBJECT_ID":"2021-012Z","CLASSIFICATION_TYPE":"U","EPHEMERIS_TYPE":"0","BSTAR":"0.00001096200000","GP_ID":"186929326","MEAN_MOTION_DOT":"-0.00000118","TLE_LINE1":"1 47643U 21012Z   21284.71199796 -.00000118  00000-0  10962-4 0  9999","COUNTRY_CODE":"US","NORAD_CAT_ID":"47643","DECAY_DATE":null,"PERIAPSIS":"545.824","ARG_OF_PERICENTER":"92.5923","INCLINATION":"53.0538","CENTER_NAME":"EARTH","MEAN_ELEMENT_THEORY":"SGP4","RCS_SIZE":"LARGE","MEAN_ANOMALY":"267.5293"},{"GP_ID":"186929077","MEAN_MOTION_DOT":"-0.00000304","TLE_LINE1":"1 47644U 21012AA  21284.72491703 -.00000304  00000-0 -14827-5 0  9997","COUNTRY_CODE":"US","NORAD_CAT_ID":"47644","DECAY_DATE":null,"PERIAPSIS":"545.927","ARG_OF_PERICENTER":"90.3203","INCLINATION":"53.0540","CENTER_NAME":"EARTH","MEAN_ELEMENT_THEORY":"SGP4","RCS_SIZE":"LARGE","MEAN_ANOMALY":"269.7998","SEMIMAJOR_AXIS":"6925.346","REV_AT_EPOCH":"3733","OBJECT_NAME":"STARLINK-2026","OBJECT_TYPE":"PAYLOAD","REF_FRAME":"TEME","APOAPSIS":"548.494","TIME_SYSTEM":"UTC","TLE_LINE2":"2 47644  53.0540  99.0352 0001853  90.3203 269.7998 15.06400987 37332","ELEMENT_SET_NO":"999","PERIOD":"95.592","MEAN_MOTION_DDOT":"0.0000000000000","FILE":"3157563","MEAN_MOTION":"15.06400987","SITE":"AFETR","LAUNCH_DATE":"2021-02-16","EPOCH":"2021-10-11T17:23:52.831392","ECCENTRICITY":"0.00018530","RA_OF_ASC_NODE":"99.0352","OBJECT_ID":"2021-012AA","CLASSIFICATION_TYPE":"U","EPHEMERIS_TYPE":"0","BSTAR":"-0.00000148270000"},{"DECAY_DATE":null,"PERIAPSIS":"544.085","COUNTRY_CODE":"US","NORAD_CAT_ID":"47645","MEAN_MOTION_DOT":"0.00001551","TLE_LINE1":"1 47645U 21012AB  21284.72302718  .00001551  00000-0  12306-3 0  9996","GP_ID":"186930328","MEAN_ELEMENT_THEORY":"SGP4","CENTER_NAME":"EARTH","INCLINATION":"53.0507","ARG_OF_PERICENTER":"317.2422","RCS_SIZE":"LARGE","MEAN_ANOMALY":"42.8215","OBJECT_NAME":"STARLINK-2027","REV_AT_EPOCH":"3772","SEMIMAJOR_AXIS":"6925.346","REF_FRAME":"TEME","OBJECT_TYPE":"PAYLOAD","MEAN_MOTION_DDOT":"0.0000000000000","FILE":"3157563","TLE_LINE2":"2 47645  53.0507  69.0485 0004513 317.2422  42.8215 15.06400869 37724","PERIOD":"95.592","ELEMENT_SET_NO":"999","TIME_SYSTEM":"UTC","APOAPSIS":"550.336","EPHEMERIS_TYPE":"0","BSTAR":"0.00012306000000","OBJECT_ID":"2021-012AB","CLASSIFICATION_TYPE":"U","EPOCH":"2021-10-11T17:21:09.548352","ECCENTRICITY":"0.00045130","RA_OF_ASC_NODE":"69.0485","SITE":"AFETR","MEAN_MOTION":"15.06400869","LAUNCH_DATE":"2021-02-16"},{"MEAN_ANOMALY":"244.1970","RCS_SIZE":"LARGE","MEAN_ELEMENT_THEORY":"SGP4","ARG_OF_PERICENTER":"115.9135","INCLINATION":"53.0572","CENTER_NAME":"EARTH","NORAD_CAT_ID":"47646","COUNTRY_CODE":"US","PERIAPSIS":"546.447","DECAY_DATE":null,"GP_ID":"186930079","TLE_LINE1":"1 47646U 21012AC  21284.77601907  .00000218  00000-0  33508-4 0  9991","MEAN_MOTION_DOT":"0.00000218","CLASSIFICATION_TYPE":"U","OBJECT_ID":"2021-012AC","BSTAR":"0.00003350800000","EPHEMERIS_TYPE":"0","LAUNCH_DATE":"2021-02-16","MEAN_MOTION":"15.06396337","SITE":"AFETR","RA_OF_ASC_NODE":"33.7916","ECCENTRICITY":"0.00011230","EPOCH":"2021-10-11T18:37:28.047648","PERIOD":"95.592","ELEMENT_SET_NO":"999","TLE_LINE2":"2 47646  53.0572  33.7916 0001123 115.9135 244.1970 15.06396337 38227","FILE":"3157563","MEAN_MOTION_DDOT":"0.0000000000000","APOAPSIS":"548.003","TIME_SYSTEM":"UTC","OBJECT_TYPE":"PAYLOAD","REF_FRAME":"TEME","OBJECT_NAME":"STARLINK-2028","REV_AT_EPOCH":"3822","SEMIMAJOR_AXIS":"6925.360"},{"REV_AT_EPOCH":"3734","SEMIMAJOR_AXIS":"6925.353","OBJECT_NAME":"STARLINK-2030","REF_FRAME":"TEME","OBJECT_TYPE":"PAYLOAD","TIME_SYSTEM":"UTC","APOAPSIS":"548.505","FILE":"3157563","MEAN_MOTION_DDOT":"0.0000000000000","ELEMENT_SET_NO":"999","PERIOD":"95.592","TLE_LINE2":"2 47647  53.0550  98.6802 0001859  95.4273 264.6928 15.06398543 37342","RA_OF_ASC_NODE":"98.6802","EPOCH":"2021-10-11T19:15:19.274688","ECCENTRICITY":"0.00018590","LAUNCH_DATE":"2021-02-16","SITE":"AFETR","MEAN_MOTION":"15.06398543","BSTAR":"0.00007148200000","EPHEMERIS_TYPE":"0","CLASSIFICATION_TYPE":"U","OBJECT_ID":"2021-012AD","TLE_LINE1":"1 47647U 21012AD  21284.80230642  .00000783  00000-0  71482-4 0  9990","MEAN_MOTION_DOT":"0.00000783","GP_ID":"186928827","PERIAPSIS":"545.931","DECAY_DATE":null,"NORAD_CAT_ID":"47647","COUNTRY_CODE":"US","CENTER_NAME":"EARTH","INCLINATION":"53.0550","ARG_OF_PERICENTER":"95.4273","MEAN_ELEMENT_THEORY":"SGP4","RCS_SIZE":"LARGE","MEAN_ANOMALY":"264.6928"}];
